1 47941U 21022K   23182.05924861  .00006599  00000-0  38192-3 0  9998
2 47941  97.4974  78.8642 0017168 290.2665  69.6719 15.12449417125100
1 47941U 21022K   23182.39004710  .00006022  00000-0  34887-3 0  9995
2 47941  97.4973  79.1891 0017133 289.0104  70.9270 15.12452519125154
1 47941U 21022K   23182.85316319  .00005897  00000-0  34166-3 0  9996
2 47941  97.4973  79.6439 0017092 287.2675  72.6685 15.12458695125222
1 47941U 21022K   23183.05164110  .00005806  00000-0  33646-3 0  9991
2 47941  97.4973  79.8389 0017075 286.5677  73.3678 15.12461086125254
1 47941U 21022K   23183.44859597  .00005332  00000-0  30929-3 0  9999
2 47941  97.4973  80.2289 0017028 285.0479  74.8867 15.12465158125318
1 47941U 21022K   23183.64707289  .00005695  00000-0  33001-3 0  9997
2 47941  97.4972  80.4238 0017012 284.2975  75.6367 15.12468372125346
1 47941U 21022K   23184.04402605  .00005615  00000-0  32543-3 0  9998
2 47941  97.4971  80.8137 0016993 282.8022  77.1310 15.12472652125409
1 47941U 21022K   23184.50713647  .00005505  00000-0  31906-3 0  9990
2 47941  97.4969  81.2685 0016957 281.0125  78.9198 15.12477896125479
1 47941U 21022K   23184.70561191  .00005466  00000-0  31684-3 0  9996
2 47941  97.4968  81.4633 0016952 280.2484  79.6835 15.12480208125508
1 47941U 21022K   23185.10256196  .00005372  00000-0  31138-3 0  9997
2 47941  97.4966  81.8532 0016940 278.6969  81.2342 15.12484391125569
1 47941U 21022K   23185.49951055  .00005789  00000-0  33521-3 0  9995
2 47941  97.4964  82.2430 0016925 277.1701  82.7605 15.12489946125626
1 47941U 21022K   23185.69798443  .00005788  00000-0  33516-3 0  9990
2 47941  97.4963  82.4379 0016925 276.3863  83.5441 15.12492417125656
1 47941U 21022K   23186.02877366  .00005736  00000-0  33214-3 0  9998
2 47941  97.4961  82.7627 0016944 275.1182  84.8115 15.12495945125702
1 47941U 21022K   23186.42571981  .00005206  00000-0  30179-3 0  9995
2 47941  97.4959  83.1526 0016953 273.5848  86.3444 15.12499413125765
1 47941U 21022K   23186.69035012  .00005046  00000-0  29259-3 0  9993
2 47941  97.4957  83.4124 0016964 272.5493  87.3795 15.12501980125805
1 47941U 21022K   23187.08729455  .00005539  00000-0  32077-3 0  9997
2 47941  97.4955  83.8023 0017001 271.0561  88.8722 15.12506911125869
1 47941U 21022K   23187.41808115  .00005493  00000-0  31808-3 0  9995
2 47941  97.4954  84.1271 0017012 269.7706  90.1575 15.12509917125911
1 47941U 21022K   23187.81502371  .00006151  00000-0  35568-3 0  9993
2 47941  97.4952  84.5170 0017036 268.2559  91.6721 15.12515250125979
1 47941U 21022K   23188.14580820  .00006573  00000-0  37972-3 0  9994
2 47941  97.4951  84.8418 0017057 266.9895  92.9384 15.12519529126026
1 47941U 21022K   23188.41043519  .00006961  00000-0  40187-3 0  9996
2 47941  97.4951  85.1016 0017065 265.9786  93.9494 15.12523163126067
1 47941U 21022K   23188.80737426  .00007863  00000-0  45333-3 0  9996
2 47941  97.4949  85.4914 0017102 264.4463  95.4818 15.12529054126121
1 47941U 21022K   23189.07199947  .00008233  00000-0  47436-3 0  9994
2 47941  97.4948  85.7512 0017109 263.4338  96.4945 15.12533279126164
1 47941U 21022K   23189.40277998  .00008280  00000-0  47698-3 0  9996
2 47941  97.4949  86.0761 0017104 262.1411  97.7878 15.12538092126211
1 47941U 21022K   23189.86587134  .00007486  00000-0  43160-3 0  9999
2 47941  97.4949  86.5309 0017117 260.4135  99.5162 15.12543548126287
1 47941U 21022K   23190.19664955  .00006910  00000-0  39869-3 0  9996
2 47941  97.4950  86.8558 0017099 259.1470 100.7837 15.12547485126338
1 47941U 21022K   23190.52742700  .00006282  00000-0  36280-3 0  9994
2 47941  97.4951  87.1807 0017092 257.8640 102.0676 15.12550812126386
1 47941U 21022K   23190.72589298  .00006205  00000-0  35833-3 0  9995
2 47941  97.4951  87.3756 0017090 257.1027 102.8295 15.12553500126417
1 47941U 21022K   23191.18897883  .00005970  00000-0  34489-3 0  9992
2 47941  97.4951  87.8304 0017085 255.2852 104.6485 15.12559364126482
1 47941U 21022K   23191.51975356  .00005900  00000-0  34083-3 0  9994
2 47941  97.4953  88.1554 0017072 253.9816 105.9535 15.12563369126532
1 47941U 21022K   23191.78437272  .00005836  00000-0  33718-3 0  9995
2 47941  97.4953  88.4153 0017067 252.9787 106.9574 15.12566615126575
1 47941U 21022K   23192.11514608  .00005475  00000-0  31650-3 0  9994
2 47941  97.4953  88.7402 0017060 251.7263 108.2112 15.12569816126629
1 47941U 21022K   23192.44591825  .00005630  00000-0  32535-3 0  9992
2 47941  97.4954  89.0652 0017048 250.4381 109.5009 15.12574274126672
1 47941U 21022K   23192.77668946  .00006105  00000-0  35242-3 0  9993
2 47941  97.4955  89.3902 0017054 249.1655 110.7749 15.12579474126728
1 47941U 21022K   23193.17361353  .00006615  00000-0  38143-3 0  9999
2 47941  97.4955  89.7800 0017059 247.6054 112.3370 15.12585663126781
1 47941U 21022K   23193.50438269  .00007143  00000-0  41148-3 0  9993
2 47941  97.4955  90.1050 0017045 246.2465 113.6978 15.12590671126839
1 47941U 21022K   23193.76899715  .00007173  00000-0  41313-3 0  9995
2 47941  97.4955  90.3649 0017059 245.2238 114.7218 15.12594628126876
1 47941U 21022K   23194.69514298  .00006411  00000-0  36954-3 0  9997
2 47941  97.4954  91.2746 0017136 241.7266 118.2235 15.12606200127016
1 47941U 21022K   23194.76129598  .00006397  00000-0  36876-3 0  9996
2 47941  97.4954  91.3396 0017143 241.4713 118.4792 15.12607065127021
1 47941U 21022K   23195.09206045  .00006633  00000-0  38214-3 0  9997
2 47941  97.4954  91.6645 0017174 240.2647 119.6876 15.12611791127070
1 47941U 21022K   23195.48897639  .00007385  00000-0  42493-3 0  9994
2 47941  97.4953  92.0544 0017225 238.8219 121.1324 15.12618430127137
1 47941U 21022K   23195.75358624  .00007653  00000-0  44012-3 0  9997
2 47941  97.4952  92.3144 0017260 237.8591 122.0966 15.12622095127174
1 47941U 21022K   23196.15049955  .00008116  00000-0  46641-3 0  9991
2 47941  97.4952  92.7043 0017309 236.3828 123.5752 15.12628650127236
1 47941U 21022K   23196.54741155  .00007533  00000-0  43314-3 0  9991
2 47941  97.4951  93.0942 0017348 234.9620 124.9984 15.12633285127292
1 47941U 21022K   23196.74586692  .00007606  00000-0  43730-3 0  9999
2 47941  97.4950  93.2891 0017373 234.2557 125.7058 15.12636509127323
1 47941U 21022K   23197.14277648  .00006812  00000-0  39202-3 0  9999
2 47941  97.4950  93.6789 0017414 232.7948 127.1694 15.12641406127386
1 47941U 21022K   23197.40738214  .00006771  00000-0  38964-3 0  9997
2 47941  97.4950  93.9388 0017440 231.8203 128.1457 15.12644928127422
1 47941U 21022K   23197.80428931  .00007120  00000-0  40941-3 0  9990
2 47941  97.4949  94.3286 0017480 230.3717 129.5972 15.12651329127486
1 47941U 21022K   23198.06889341  .00007256  00000-0  41709-3 0  9998
2 47941  97.4949  94.5885 0017486 229.3441 130.6271 15.12655268127527
1 47941U 21022K   23198.46579758  .00008501  00000-0  48785-3 0  9995
2 47941  97.4948  94.9784 0017524 227.8679 132.1064 15.12663186127588
1 47941U 21022K   23198.79654972  .00008864  00000-0  50840-3 0  9990
2 47941  97.4948  95.3033 0017543 226.6535 133.3235 15.12669493127635
1 47941U 21022K   23199.06115061  .00008986  00000-0  51525-3 0  9998
2 47941  97.4948  95.5632 0017551 225.6461 134.3333 15.12674150127678
1 47941U 21022K   23199.52419956  .00009007  00000-0  51635-3 0  9996
2 47941  97.4947  96.0179 0017558 223.8681 136.1156 15.12683025127742
1 47941U 21022K   23199.72264838  .00008811  00000-0  50514-3 0  9992
2 47941  97.4946  96.2128 0017569 223.1192 136.8664 15.12686706127772
1 47941U 21022K   23200.05339559  .00008351  00000-0  47890-3 0  9996
2 47941  97.4946  96.5375 0017574 221.8009 138.1881 15.12691959127825
1 47941U 21022K   23200.45029061  .00007937  00000-0  45528-3 0  9999
2 47941  97.4945  96.9274 0017610 220.2290 139.7638 15.12698153127888
1 47941U 21022K   23200.78103566  .00007239  00000-0  41557-3 0  9991
2 47941  97.4944  97.2522 0017614 219.0184 140.9777 15.12702466127936
1 47941U 21022K   23201.77326440  .00007211  00000-0  41378-3 0  9990
2 47941  97.4941  98.2268 0017693 215.3245 144.6815 15.12716674128082
1 47941U 21022K   23202.10400506  .00007950  00000-0  45572-3 0  9994
2 47941  97.4940  98.5516 0017714 214.0035 146.0062 15.12722478128132
1 47941U 21022K   23202.43474500  .00007429  00000-0  42605-3 0  9990
2 47941  97.4938  98.8765 0017753 212.7592 147.2539 15.12725969128189
1 47941U 21022K   23202.76548392  .00007311  00000-0  41932-3 0  9999
2 47941  97.4935  99.2012 0017804 211.5457 148.4708 15.12730530128237
1 47941U 21022K   23205.54364942  .00007351  00000-0  42106-3 0  9993
2 47941  97.4926 101.9300 0018190 201.9939 158.0513 15.12769936128654
1 47941U 21022K   23206.60197954  .00007617  00000-0  43590-3 0  9991
2 47941  97.4928 102.9693 0018248 198.2932 161.7645 15.12785692128819
1 47941U 21022K   23207.59415259  .00009751  00000-0  55649-3 0  9990
2 47941  97.4930 103.9440 0018365 194.6809 165.3891 15.12805191128962
1 47941U 21022K   23207.79258565  .00009793  00000-0  55884-3 0  9994
2 47941  97.4930 104.1389 0018382 193.9420 166.1306 15.12809069128998
1 47941U 21022K   23207.92487427  .00009471  00000-0  54057-3 0  9994
2 47941  97.4931 104.2689 0018404 193.4555 166.6187 15.12810743129019
1 47941U 21022K   23208.05716257  .00009438  00000-0  53868-3 0  9997
2 47941  97.4931 104.3990 0018408 192.9361 167.1400 15.12813205129030
1 47941U 21022K   23208.45402623  .00008359  00000-0  47747-3 0  9990
2 47941  97.4932 104.7889 0018444 191.4215 168.6600 15.12818911129097
1 47941U 21022K   23208.58631372  .00008026  00000-0  45862-3 0  9996
2 47941  97.4932 104.9189 0018456 190.9420 169.1412 15.12820943129115
1 47941U 21022K   23208.78474446  .00007894  00000-0  45107-3 0  9999
2 47941  97.4933 105.1138 0018478 190.2387 169.8470 15.12824573129149
1 47941U 21022K   23208.91703161  .00007425  00000-0  42450-3 0  9991
2 47941  97.4933 105.2437 0018490 189.7357 170.3518 15.12826034129162
1 47941U 21022K   23209.04931849  .00007268  00000-0  41561-3 0  9999
2 47941  97.4934 105.3737 0018498 189.2363 170.8530 15.12828084129185
1 47941U 21022K   23209.38003506  .00006202  00000-0  35517-3 0  9997
2 47941  97.4934 105.6986 0018533 187.9774 172.1165 15.12831602129230
1 47941U 21022K   23209.57846463  .00006187  00000-0  35434-3 0  9995
2 47941  97.4934 105.8935 0018551 187.3114 172.7849 15.12833913129263
1 47941U 21022K   23209.77689374  .00005974  00000-0  34220-3 0  9998
2 47941  97.4934 106.0885 0018564 186.6354 173.4634 15.12836539129292
1 47941U 21022K   23210.04146510  .00006218  00000-0  35601-3 0  9996
2 47941  97.4934 106.3484 0018617 185.6943 174.4080 15.12840773129338
1 47941U 21022K   23210.37217831  .00006980  00000-0  39905-3 0  9994
2 47941  97.4934 106.6734 0018661 184.4279 175.6790 15.12847193129386
1 47941U 21022K   23210.76903320  .00006979  00000-0  39891-3 0  9994
2 47941  97.4934 107.0633 0018708 183.0618 177.0502 15.12852803129441
1 47941U 21022K   23211.03360204  .00007336  00000-0  41904-3 0  9999
2 47941  97.4934 107.3232 0018740 182.1222 177.9933 15.12857279129489
1 47941U 21022K   23211.43045443  .00006378  00000-0  36479-3 0  9994
2 47941  97.4932 107.7130 0018795 180.7814 179.3391 15.12861277129543
1 47941U 21022K   23211.76116321  .00006836  00000-0  39062-3 0  9994
2 47941  97.4932 108.0380 0018824 179.7130 180.4115 15.12867259129594
